CTC1_L_00673001-01
1 41190U 26370BF  26070.40841435  .00000000  00000+0  00000-0 0  9996
2 41190  70.0000   0.0000 0000000   0.0000   0.0000  1.97017143    18
CTC1_L_00673001-02
1 41191U 24488VB  26070.40841435  .00000000  00000+0  00000-0 0  9995
2 41191  70.0000   0.0000 0000000   0.0000  36.0000  1.97017143    18
CTC1_L_00673001-03
1 41192U 25255UT  26070.40841435  .00000000  00000+0  00000-0 0  9999
2 41192  70.0000   0.0000 0000000   0.0000  72.0000  1.97017143    19
CTC1_L_00673001-04
1 41193U 22039WA  26070.40841435  .00000000  00000+0  00000-0 0  9997
2 41193  70.0000   0.0000 0000000   0.0000 108.0000  1.97017143    10
CTC1_L_00673001-05
1 41194U 22846QJ  26070.40841435  .00000000  00000+0  00000-0 0  9994
2 41194  70.0000   0.0000 0000000   0.0000 144.0000  1.97017143    11
CTC1_L_00673001-06
1 41195U 23959FQ  26070.40841435  .00000000  00000+0  00000-0 0  9991
2 41195  70.0000   0.0000 0000000   0.0000 180.0000  1.97017143    12
CTC1_L_00673001-07
1 41196U 24378EI  26070.40841435  .00000000  00000+0  00000-0 0  9998
2 41196  70.0000   0.0000 0000000   0.0000 216.0000  1.97017143    13
CTC1_L_00673001-08
1 41197U 22538KK  26070.40841435  .00000000  00000+0  00000-0 0  9995
2 41197  70.0000   0.0000 0000000   0.0000 252.0000  1.97017143    14
CTC1_L_00673001-09
1 41198U 22289GA  26070.40841435  .00000000  00000+0  00000-0 0  9999
2 41198  70.0000   0.0000 0000000   0.0000 288.0000  1.97017143    14
CTC1_L_00673001-10
1 41199U 25343QR  26070.40841435  .00000000  00000+0  00000-0 0  9994
2 41199  70.0000   0.0000 0000000   0.0000 324.0000  1.97017143    16
CTC1_L_00673002-01
1 41200U 26711CE  26070.40841435  .00000000  00000+0  00000-0 0  9997
2 41200  70.0000  30.0000 0000000   0.0000  12.0000  1.97017143    16
CTC1_L_00673002-02
1 41201U 22462YA  26070.40841435  .00000000  00000+0  00000-0 0  9997
2 41201  70.0000  30.0000 0000000   0.0000  48.0000  1.97017143    16
CTC1_L_00673002-03
1 41202U 23008IZ  26070.40841435  .00000000  00000+0  00000-0 0  9995
2 41202  70.0000  30.0000 0000000   0.0000  84.0000  1.97017143    17
CTC1_L_00673002-04
1 41203U 23457FI  26070.40841435  .00000000  00000+0  00000-0 0  9994
2 41203  70.0000  30.0000 0000000   0.0000 120.0000  1.97017143    19
CTC1_L_00673002-05
1 41204U 23331UP  26070.40841435  .00000000  00000+0  00000-0 0  9996
2 41204  70.0000  30.0000 0000000   0.0000 156.0000  1.97017143    19
CTC1_L_00673002-06
1 41205U 22372JS  26070.40841435  .00000000  00000+0  00000-0 0  9991
2 41205  70.0000  30.0000 0000000   0.0000 192.0000  1.97017143    10
CTC1_L_00673002-07
1 41206U 23199XN  26070.40841435  .00000000  00000+0  00000-0 0  9990
2 41206  70.0000  30.0000 0000000   0.0000 228.0000  1.97017143    11
CTC1_L_00673002-08
1 41207U 22347XC  26070.40841435  .00000000  00000+0  00000-0 0  9995
2 41207  70.0000  30.0000 0000000   0.0000 264.0000  1.97017143    12
CTC1_L_00673002-09
1 41208U 23286EX  26070.40841435  .00000000  00000+0  00000-0 0  9999
2 41208  70.0000  30.0000 0000000   0.0000 300.0000  1.97017143    14
CTC1_L_00673002-10
1 41209U 25237JC  26070.40841435  .00000000  00000+0  00000-0 0  9998
2 41209  70.0000  30.0000 0000000   0.0000 336.0000  1.97017143    14
CTC1_L_00673003-01
1 41210U 26048HV  26070.40841435  .00000000  00000+0  00000-0 0  9991
2 41210  70.0000  60.0000 0000000   0.0000  24.0000  1.97017143    13
CTC1_L_00673003-02
1 41211U 23003OM  26070.40841435  .00000000  00000+0  00000-0 0  9990
2 41211  70.0000  60.0000 0000000   0.0000  60.0000  1.97017143    14
CTC1_L_00673003-03
1 41212U 24992LJ  26070.40841435  .00000000  00000+0  00000-0 0  9999
2 41212  70.0000  60.0000 0000000   0.0000  96.0000  1.97017143    14
CTC1_L_00673003-04
1 41213U 23726VI  26070.40841435  .00000000  00000+0  00000-0 0  9994
2 41213  70.0000  60.0000 0000000   0.0000 132.0000  1.97017143    16
CTC1_L_00673003-05
1 41214U 22982MC  26070.40841435  .00000000  00000+0  00000-0 0  9998
2 41214  70.0000  60.0000 0000000   0.0000 168.0000  1.97017143    16
CTC1_L_00673003-06
1 41215U 24551CV  26070.40841435  .00000000  00000+0  00000-0 0  9993
2 41215  70.0000  60.0000 0000000   0.0000 204.0000  1.97017143    18
CTC1_L_00673003-07
1 41216U 26518TZ  26070.40841435  .00000000  00000+0  00000-0 0  9999
2 41216  70.0000  60.0000 0000000   0.0000 240.0000  1.97017143    19
CTC1_L_00673003-08
1 41217U 25940DF  26070.40841435  .00000000  00000+0  00000-0 0  9998
2 41217  70.0000  60.0000 0000000   0.0000 276.0000  1.97017143    19
CTC1_L_00673003-09
1 41218U 25223AA  26070.40841435  .00000000  00000+0  00000-0 0  9993
2 41218  70.0000  60.0000 0000000   0.0000 312.0000  1.97017143    11
CTC1_L_00673003-10
1 41219U 22281RJ  26070.40841435  .00000000  00000+0  00000-0 0  9995
2 41219  70.0000  60.0000 0000000   0.0000 348.0000  1.97017143    11
CTC1_L_00673004-01
1 41220U 23971WZ  26070.40841435  .00000000  00000+0  00000-0 0  9994
2 41220  70.0000  90.0000 0000000   0.0000  36.0000  1.97017143    10
CTC1_L_00673004-02
1 41221U 22429UG  26070.40841435  .00000000  00000+0  00000-0 0  9992
2 41221  70.0000  90.0000 0000000   0.0000  72.0000  1.97017143    11
CTC1_L_00673004-03
1 41222U 23044U   26070.40841435  .00000000  00000+0  00000-0 0  9997
2 41222  70.0000  90.0000 0000000   0.0000 108.0000  1.97017143    12
CTC1_L_00673004-04
1 41223U 26068VH  26070.40841435  .00000000  00000+0  00000-0 0  9997
2 41223  70.0000  90.0000 0000000   0.0000 144.0000  1.97017143    13
CTC1_L_00673004-05
1 41224U 24827CU  26070.40841435  .00000000  00000+0  00000-0 0  9999
2 41224  70.0000  90.0000 0000000   0.0000 180.0000  1.97017143    14
CTC1_L_00673004-06
1 41225U 24931YB  26070.40841435  .00000000  00000+0  00000-0 0  9996
2 41225  70.0000  90.0000 0000000   0.0000 216.0000  1.97017143    15
CTC1_L_00673004-07
1 41226U 24870AR  26070.40841435  .00000000  00000+0  00000-0 0  9999
2 41226  70.0000  90.0000 0000000   0.0000 252.0000  1.97017143    16
CTC1_L_00673004-08
1 41227U 24189A   26070.40841435  .00000000  00000+0  00000-0 0  9993
2 41227  70.0000  90.0000 0000000   0.0000 288.0000  1.97017143    16
CTC1_L_00673004-09
1 41228U 22663KI  26070.40841435  .00000000  00000+0  00000-0 0  9999
2 41228  70.0000  90.0000 0000000   0.0000 324.0000  1.97017143    18
CTC1_L_00673004-10
1 41229U 22488RT  26070.40841435  .00000000  00000+0  00000-0 0  9995
2 41229  70.0000  90.0000 0000000   0.0000   0.0000  1.97017143    10
CTC1_L_00673005-01
1 41230U 25456NO  26070.40841435  .00000000  00000+0  00000-0 0  9995
2 41230  70.0000 120.0000 0000000   0.0000  48.0000  1.97017143    18
CTC1_L_00673005-02
1 41231U 23293VZ  26070.40841435  .00000000  00000+0  00000-0 0  9993
2 41231  70.0000 120.0000 0000000   0.0000  84.0000  1.97017143    19
CTC1_L_00673005-03
1 41232U 23928PW  26070.40841435  .00000000  00000+0  00000-0 0  9999
2 41232  70.0000 120.0000 0000000   0.0000 120.0000  1.97017143    11
CTC1_L_00673005-04
1 41233U 22886WC  26070.40841435  .00000000  00000+0  00000-0 0  9992
2 41233  70.0000 120.0000 0000000   0.0000 156.0000  1.97017143    11
CTC1_L_00673005-05
1 41234U 25956WT  26070.40841435  .00000000  00000+0  00000-0 0  9994
2 41234  70.0000 120.0000 0000000   0.0000 192.0000  1.97017143    12
CTC1_L_00673005-06
1 41235U 24757SS  26070.40841435  .00000000  00000+0  00000-0 0  9993
2 41235  70.0000 120.0000 0000000   0.0000 228.0000  1.97017143    13
CTC1_L_00673005-07
1 41236U 26539RL  26070.40841435  .00000000  00000+0  00000-0 0  9994
2 41236  70.0000 120.0000 0000000   0.0000 264.0000  1.97017143    14
CTC1_L_00673005-08
1 41237U 24858AU  26070.40841435  .00000000  00000+0  00000-0 0  9997
2 41237  70.0000 120.0000 0000000   0.0000 300.0000  1.97017143    16
CTC1_L_00673005-09
1 41238U 26641IG  26070.40841435  .00000000  00000+0  00000-0 0  9990
2 41238  70.0000 120.0000 0000000   0.0000 336.0000  1.97017143    16
CTC1_L_00673005-10
1 41239U 25413TA  26070.40841435  .00000000  00000+0  00000-0 0  9997
2 41239  70.0000 120.0000 0000000   0.0000  12.0000  1.97017143    18
CTC1_L_00673006-01
1 41240U 22230RX  26070.40841435  .00000000  00000+0  00000-0 0  9993
2 41240  70.0000 150.0000 0000000   0.0000  60.0000  1.97017143    16
CTC1_L_00673006-02
1 41241U 24889OG  26070.40841435  .00000000  00000+0  00000-0 0  9996
2 41241  70.0000 150.0000 0000000   0.0000  96.0000  1.97017143    16
CTC1_L_00673006-03
1 41242U 26580DZ  26070.40841435  .00000000  00000+0  00000-0 0  9997
2 41242  70.0000 150.0000 0000000   0.0000 132.0000  1.97017143    18
CTC1_L_00673006-04
1 41243U 23763PA  26070.40841435  .00000000  00000+0  00000-0 0  9998
2 41243  70.0000 150.0000 0000000   0.0000 168.0000  1.97017143    18
CTC1_L_00673006-05
1 41244U 22723HI  26070.40841435  .00000000  00000+0  00000-0 0  9994
2 41244  70.0000 150.0000 0000000   0.0000 204.0000  1.97017143    10
CTC1_L_00673006-06
1 41245U 23632TS  26070.40841435  .00000000  00000+0  00000-0 0  9995
2 41245  70.0000 150.0000 0000000   0.0000 240.0000  1.97017143    11
CTC1_L_00673006-07
1 41246U 25689SQ  26070.40841435  .00000000  00000+0  00000-0 0  9990
2 41246  70.0000 150.0000 0000000   0.0000 276.0000  1.97017143    11
CTC1_L_00673006-08
1 41247U 26154XU  26070.40841435  .00000000  00000+0  00000-0 0  9999
2 41247  70.0000 150.0000 0000000   0.0000 312.0000  1.97017143    13
CTC1_L_00673006-09
1 41248U 22492OG  26070.40841435  .00000000  00000+0  00000-0 0  9991
2 41248  70.0000 150.0000 0000000   0.0000 348.0000  1.97017143    13
CTC1_L_00673006-10
1 41249U 22229WZ  26070.40841435  .00000000  00000+0  00000-0 0  9990
2 41249  70.0000 150.0000 0000000   0.0000  24.0000  1.97017143    15
CTC1_L_00673007-01
1 41250U 23561YF  26070.40841435  .00000000  00000+0  00000-0 0  9992
2 41250  70.0000 180.0000 0000000   0.0000  72.0000  1.97017143    13
CTC1_L_00673007-02
1 41251U 25932OV  26070.40841435  .00000000  00000+0  00000-0 0  9997
2 41251  70.0000 180.0000 0000000   0.0000 108.0000  1.97017143    14
